XRISM                   
1 57800U 23137A   26092.14771571  .00006385  00000+0  35922-3 0  9993
2 57800  31.0012 131.9035 0007904 274.9966  84.9770 15.11778521141340
ACS3                    
1 59588U 24077B   26092.10609346  .00033771  00000+0  26369-1 0  9990
2 59588  97.1959  27.9551 0073198  23.6529 336.7973 13.90753500 97457
HTV-X1                  
1 66174U 25241A   26092.12653017  .00001437  00000+0  56784-4 0  9990
2 66174  51.6371 320.1037 0007228 263.4233  96.5926 15.32496125 24536
SZ-21 MODULE            
1 66515U 25246C   26091.98107818  .00045644  00000+0  36265-3 0  9999
2 66515  41.4743  59.7865 0002640 221.3741 138.6901 15.70416222 21731
