CCSDS_OMM_VERS = 2.0
CREATION_DATE  = 
ORIGINATOR     = 

OBJECT_NAME    = XRISM
OBJECT_ID      = 2023-137A
CENTER_NAME    = EARTH
REF_FRAME      = TEME
TIME_SYSTEM    = UTC
MEAN_ELEMENT_THEORY = SGP/SGP4

EPOCH          = 2026-04-02T03:32:42.637344
MEAN_MOTION    = 15.11778521
ECCENTRICITY   = .0007904
INCLINATION    = 31.0012
RA_OF_ASC_NODE = 131.9035
ARG_OF_PERICENTER = 274.9966
MEAN_ANOMALY   = 84.9770

EPHEMERIS_TYPE = 0
CLASSIFICATION_TYPE = U
NORAD_CAT_ID   = 57800
ELEMENT_SET_NO = 999
REV_AT_EPOCH   = 14134
BSTAR          = .35922E-3
MEAN_MOTION_DOT = .6385E-4
MEAN_MOTION_DDOT = 0

CCSDS_OMM_VERS = 2.0
CREATION_DATE  = 
ORIGINATOR     = 

OBJECT_NAME    = ACS3
OBJECT_ID      = 2024-077B
CENTER_NAME    = EARTH
REF_FRAME      = TEME
TIME_SYSTEM    = UTC
MEAN_ELEMENT_THEORY = SGP/SGP4

EPOCH          = 2026-04-02T02:32:46.474944
MEAN_MOTION    = 13.90753500
ECCENTRICITY   = .0073198
INCLINATION    = 97.1959
RA_OF_ASC_NODE = 27.9551
ARG_OF_PERICENTER = 23.6529
MEAN_ANOMALY   = 336.7973

EPHEMERIS_TYPE = 0
CLASSIFICATION_TYPE = U
NORAD_CAT_ID   = 59588
ELEMENT_SET_NO = 999
REV_AT_EPOCH   = 9745
BSTAR          = .26369E-1
MEAN_MOTION_DOT = .33771E-3
MEAN_MOTION_DDOT = 0

CCSDS_OMM_VERS = 2.0
CREATION_DATE  = 
ORIGINATOR     = 

OBJECT_NAME    = HTV-X1
OBJECT_ID      = 2025-241A
CENTER_NAME    = EARTH
REF_FRAME      = TEME
TIME_SYSTEM    = UTC
MEAN_ELEMENT_THEORY = SGP/SGP4

EPOCH          = 2026-04-02T03:02:12.206688
MEAN_MOTION    = 15.32496125
ECCENTRICITY   = .0007228
INCLINATION    = 51.6371
RA_OF_ASC_NODE = 320.1037
ARG_OF_PERICENTER = 263.4233
MEAN_ANOMALY   = 96.5926

EPHEMERIS_TYPE = 0
CLASSIFICATION_TYPE = U
NORAD_CAT_ID   = 66174
ELEMENT_SET_NO = 999
REV_AT_EPOCH   = 2453
BSTAR          = .56784E-4
MEAN_MOTION_DOT = .1437E-4
MEAN_MOTION_DDOT = 0

CCSDS_OMM_VERS = 2.0
CREATION_DATE  = 
ORIGINATOR     = 

OBJECT_NAME    = SZ-21 MODULE
OBJECT_ID      = 2025-246C
CENTER_NAME    = EARTH
REF_FRAME      = TEME
TIME_SYSTEM    = UTC
MEAN_ELEMENT_THEORY = SGP/SGP4

EPOCH          = 2026-04-01T23:32:45.154752
MEAN_MOTION    = 15.70416222
ECCENTRICITY   = .000264
INCLINATION    = 41.4743
RA_OF_ASC_NODE = 59.7865
ARG_OF_PERICENTER = 221.3741
MEAN_ANOMALY   = 138.6901

EPHEMERIS_TYPE = 0
CLASSIFICATION_TYPE = U
NORAD_CAT_ID   = 66515
ELEMENT_SET_NO = 999
REV_AT_EPOCH   = 2173
BSTAR          = .36265E-3
MEAN_MOTION_DOT = .45644E-3
MEAN_MOTION_DDOT = 0

